{
  "links" : {
    "next" : "https://api.nasa.gov/neo/rest/v1/feed?start_date=2014-01-23&end_date=2014-01-23&detailed=true&api_key=t0TVs3DtDT2H8Oy2Zy8m2eVrNsAVKAexjcZXUckd",
    "prev" : "https://api.nasa.gov/neo/rest/v1/feed?start_date=2014-01-21&end_date=2014-01-21&detailed=true&api_key=t0TVs3DtDT2H8Oy2Zy8m2eVrNsAVKAexjcZXUckd",
    "self" : "https://api.nasa.gov/neo/rest/v1/feed?start_date=2014-01-22&end_date=2014-01-22&detailed=true&api_key=t0TVs3DtDT2H8Oy2Zy8m2eVrNsAVKAexjcZXUckd"
  },
  "element_count" : 7,
  "near_earth_objects" : {
    "2014-01-22" : [ {
      "links" : {
        "self" : "https://api.nasa.gov/neo/rest/v1/neo/3656932?api_key=t0TVs3DtDT2H8Oy2Zy8m2eVrNsAVKAexjcZXUckd"
      },
      "neo_reference_id" : "3656932",
      "name" : "(2014 BL25)",
      "nasa_jpl_url" : "http://ssd.jpl.nasa.gov/sbdb.cgi?sstr=3656932",
      "absolute_magnitude_h" : 23.8,
      "estimated_diameter" : {
        "kilometers" : {
          "estimated_diameter_min" : 0.046190746,
          "estimated_diameter_max" : 0.1032856481
        },
        "meters" : {
          "estimated_diameter_min" : 46.1907460282,
          "estimated_diameter_max" : 103.2856480504
        },
        "miles" : {
          "estimated_diameter_min" : 0.0287015901,
          "estimated_diameter_max" : 0.0641787064
        },
        "feet" : {
          "estimated_diameter_min" : 151.544447199,
          "estimated_diameter_max" : 338.8636855496
        }
      },
      "is_potentially_hazardous_asteroid" : false,
      "close_approach_data" : [ {
        "close_approach_date" : "2014-01-22",
        "epoch_date_close_approach" : 1390377600000,
        "relative_velocity" : {
          "kilometers_per_second" : "9.7516168746",
          "kilometers_per_hour" : "35105.8207484992",
          "miles_per_hour" : "21813.391786755"
        },
        "miss_distance" : {
          "astronomical" : "0.1360858549",
          "lunar" : "52.9373970032",
          "kilometers" : "20358154",
          "miles" : "12649970"
        },
        "orbiting_body" : "Earth"
      } ],
      "orbital_data" : {
        "orbit_id" : "8",
        "orbit_determination_date" : "2017-04-06 08:42:45",
        "orbit_uncertainty" : "9",
        "minimum_orbit_intersection" : ".135876",
        "jupiter_tisserand_invariant" : "3.625",
        "epoch_osculation" : "2456686.5",
        "eccentricity" : ".4525386533669776",
        "semi_major_axis" : "2.037942198917696",
        "inclination" : "16.17131360671912",
        "ascending_node_longitude" : "126.2129902342465",
        "orbital_period" : "1062.640148036102",
        "perihelion_distance" : "1.115694580579745",
        "perihelion_argument" : "348.6020362956401",
        "aphelion_distance" : "2.960189817255647",
        "perihelion_time" : "2456672.464394655408",
        "mean_anomaly" : "4.754966141069852",
        "mean_motion" : ".3387788431157313",
        "equinox" : "J2000"
      }
    }, {
      "links" : {
        "self" : "https://api.nasa.gov/neo/rest/v1/neo/3678609?api_key=t0TVs3DtDT2H8Oy2Zy8m2eVrNsAVKAexjcZXUckd"
      },
      "neo_reference_id" : "3678609",
      "name" : "(2014 OS338)",
      "nasa_jpl_url" : "http://ssd.jpl.nasa.gov/sbdb.cgi?sstr=3678609",
      "absolute_magnitude_h" : 27.0,
      "estimated_diameter" : {
        "kilometers" : {
          "estimated_diameter_min" : 0.0105816886,
          "estimated_diameter_max" : 0.023661375
        },
        "meters" : {
          "estimated_diameter_min" : 10.5816885933,
          "estimated_diameter_max" : 23.6613750114
        },
        "miles" : {
          "estimated_diameter_min" : 0.0065751544,
          "estimated_diameter_max" : 0.0147024923
        },
        "feet" : {
          "estimated_diameter_min" : 34.7168272045,
          "estimated_diameter_max" : 77.6291855923
        }
      },
      "is_potentially_hazardous_asteroid" : false,
      "close_approach_data" : [ {
        "close_approach_date" : "2014-01-22",
        "epoch_date_close_approach" : 1390377600000,
        "relative_velocity" : {
          "kilometers_per_second" : "5.5581438928",
          "kilometers_per_hour" : "20009.3180139406",
          "miles_per_hour" : "12433.0120737177"
        },
        "miss_distance" : {
          "astronomical" : "0.2589645257",
          "lunar" : "100.7372055054",
          "kilometers" : "38740544",
          "miles" : "24072258"
        },
        "orbiting_body" : "Earth"
      } ],
      "orbital_data" : {
        "orbit_id" : "5",
        "orbit_determination_date" : "2017-04-06 08:39:26",
        "orbit_uncertainty" : "7",
        "minimum_orbit_intersection" : ".0299892",
        "jupiter_tisserand_invariant" : "5.408",
        "epoch_osculation" : "2458000.5",
        "eccentricity" : ".1916527436633153",
        "semi_major_axis" : "1.159320879663503",
        "inclination" : "6.854983563914328",
        "ascending_node_longitude" : "126.6318041308618",
        "orbital_period" : "455.9360300549091",
        "perihelion_distance" : ".9371338522898244",
        "perihelion_argument" : "103.3099434915535",
        "aphelion_distance" : "1.381507907037181",
        "perihelion_time" : "2458165.498133106649",
        "mean_anomaly" : "229.7200396484566",
        "mean_motion" : ".7895844510394245",
        "equinox" : "J2000"
      }
    }, {
      "links" : {
        "self" : "https://api.nasa.gov/neo/rest/v1/neo/2249595?api_key=t0TVs3DtDT2H8Oy2Zy8m2eVrNsAVKAexjcZXUckd"
      },
      "neo_reference_id" : "2249595",
      "name" : "249595 (1997 GH28)",
      "nasa_jpl_url" : "http://ssd.jpl.nasa.gov/sbdb.cgi?sstr=2249595",
      "absolute_magnitude_h" : 17.7,
      "estimated_diameter" : {
        "kilometers" : {
          "estimated_diameter_min" : 0.7665755735,
          "estimated_diameter_max" : 1.7141150923
        },
        "meters" : {
          "estimated_diameter_min" : 766.5755735311,
          "estimated_diameter_max" : 1714.1150923063
        },
        "miles" : {
          "estimated_diameter_min" : 0.4763278307,
          "estimated_diameter_max" : 1.065101409
        },
        "feet" : {
          "estimated_diameter_min" : 2515.0118046636,
          "estimated_diameter_max" : 5623.7373594423
        }
      },
      "is_potentially_hazardous_asteroid" : false,
      "close_approach_data" : [ {
        "close_approach_date" : "2014-01-22",
        "epoch_date_close_approach" : 1390377600000,
        "relative_velocity" : {
          "kilometers_per_second" : "2.3352667062",
          "kilometers_per_hour" : "8406.9601423657",
          "miles_per_hour" : "5223.7580951272"
        },
        "miss_distance" : {
          "astronomical" : "0.3546761476",
          "lunar" : "137.9690246582",
          "kilometers" : "53058800",
          "miles" : "32969208"
        },
        "orbiting_body" : "Earth"
      } ],
      "orbital_data" : {
        "orbit_id" : "121",
        "orbit_determination_date" : "2017-05-01 06:22:24",
        "orbit_uncertainty" : "0",
        "minimum_orbit_intersection" : ".306679",
        "jupiter_tisserand_invariant" : "3.740",
        "epoch_osculation" : "2458000.5",
        "eccentricity" : ".3714278254608062",
        "semi_major_axis" : "2.00400120160087",
        "inclination" : "7.01258819295248",
        "ascending_node_longitude" : "354.4759234878418",
        "orbital_period" : "1036.204307384013",
        "perihelion_distance" : "1.259659393069416",
        "perihelion_argument" : "105.2088699629412",
        "aphelion_distance" : "2.748343010132324",
        "perihelion_time" : "2457680.627902989450",
        "mean_anomaly" : "111.1305503202493",
        "mean_motion" : ".3474218331603455",
        "equinox" : "J2000"
      }
    } ]
  }
}